[
  {
    "OBJECT_NAME": "STARLINK-11636 [DTC]",
    "OBJECT_ID": "25048M",
    "EPOCH": "2025-11-11T04:45:09.202752",
    "MEAN_MOTION": 15.70931288,
    "ECCENTRICITY": 0.0002358,
    "INCLINATION": 42.9995,
    "RA_OF_ASC_NODE": 314.2909,
    "ARG_OF_PERICENTER": 286.9853,
    "MEAN_ANOMALY": 73.0756,
    "EPHEMERIS_TYPE": 0,
    "CLASSIFICATION_TYPE": "U",
    "NORAD_CAT_ID": 63194,
    "ELEMENT_SET_NO": 999,
    "REV_AT_EPOCH": 3988,
    "BSTAR": 0.0021679,
    "MEAN_MOTION_DOT": 0.00288706,
    "MEAN_MOTION_DDOT": 0.0,
    "TLE_LINE1": "1 63194U 25048M   25315.19802318  .00288706  00000+0  21679-2 0  9997",
    "TLE_LINE2": "2 63194  42.9995 314.2909 0002358 286.9853  73.0756 15.70931288 39880",
    "COMMENT": "Grouped by shell and plane from TLE"
  },
  {
    "OBJECT_NAME": "STARLINK-11631 [DTC]",
    "OBJECT_ID": "25048N",
    "EPOCH": "2025-11-11T00:41:03.441120",
    "MEAN_MOTION": 15.70916002,
    "ECCENTRICITY": 0.0002084,
    "INCLINATION": 43.0003,
    "RA_OF_ASC_NODE": 315.6105,
    "ARG_OF_PERICENTER": 262.2909,
    "MEAN_ANOMALY": 97.7722,
    "EPHEMERIS_TYPE": 0,
    "CLASSIFICATION_TYPE": "U",
    "NORAD_CAT_ID": 63195,
    "ELEMENT_SET_NO": 999,
    "REV_AT_EPOCH": 3985,
    "BSTAR": 0.0015944,
    "MEAN_MOTION_DOT": 0.00210063,
    "MEAN_MOTION_DDOT": 0.0,
    "TLE_LINE1": "1 63195U 25048N   25315.02851205  .00210063  00000+0  15944-2 0  9998",
    "TLE_LINE2": "2 63195  43.0003 315.6105 0002084 262.2909  97.7722 15.70916002 39851",
    "COMMENT": "Grouped by shell and plane from TLE"
  }
]